     2.10           G: GLONASS NAV DATA                     RINEX VERSION / TYPE
teqc  2015Jun23                         20220412 01:34:06UTCPGM / RUN BY / DATE
Linux 2.4.21-27.ELsmp|Opteron|gcc -static|Linux x86_64|=+   COMMENT
  2022     3    27   -1.396983861923D-09                    CORR TO SYSTEM TIME
                                                            END OF HEADER
 1 22  3 28  4 45  0.0 7.415190339088D-06 0.000000000000D+00 1.620000000000D+04
   -4.971064453125D+03-2.095725059509D+00 1.862645149231D-09 0.000000000000D+00
    1.063158349609D+04-2.285878181458D+00 2.793967723846D-09 1.000000000000D+00
   -2.264259667969D+04-6.117153167725D-01 1.862645149231D-09 0.000000000000D+00
 2 22  3 28  4 45  0.0 5.138153210282D-04 0.000000000000D+00 1.620000000000D+04
    1.066211376953D+04-9.120655059814D-01 9.313225746155D-10 0.000000000000D+00
    2.019375927734D+04-1.264307975769D+00 4.656612873077D-09-4.000000000000D+00
   -1.125468798828D+04-3.124805450439D+00-9.313225746155D-10 0.000000000000D+00
 3 22  3 28  4 45  0.0 5.389377474785D-05 0.000000000000D+00 1.620000000000D+04
    1.849970019531D+04 6.654176712036D-01-0.000000000000D+00 0.000000000000D+00
    1.645505126953D+04 5.121107101440D-01 3.725290298462D-09 5.000000000000D+00
    6.069797363281D+03-3.449252128601D+00-2.793967723846D-09 0.000000000000D+00
22 22  3 28  4 45  0.0-1.733181998134D-04-2.728484105319D-12 1.620000000000D+04
   -1.260345800781D+04 1.043545722961D+00 0.000000000000D+00 0.000000000000D+00
    8.275315429688D+03-2.625412940979D+00-9.313225746155D-10-3.000000000000D+00
    2.052781738281D+04 1.707346916199D+00-1.862645149231D-09 0.000000000000D+00
23 22  3 28  4 45  0.0-3.509875386953D-05-9.094947017729D-13 1.620000000000D+04
   -9.918457519531D+03 4.048957824707D-01 1.862645149231D-09 0.000000000000D+00
    2.318694287109D+04-4.094915390015D-01 1.862645149231D-09 3.000000000000D+00
    3.784215820312D+03 3.563486099243D+00-1.862645149231D-09 0.000000000000D+00
24 22  3 28  4 45  0.0 8.641090244055D-05 1.818989403546D-12 1.620000000000D+04
   -2.432766601562D+03-3.527450561523D-01 1.862645149231D-09 0.000000000000D+00
    2.279517333984D+04 1.501274108887D+00 4.656612873077D-09 2.000000000000D+00
   -1.117683593750D+04 3.133512496948D+00-0.000000000000D+00 0.000000000000D+00
17 22  3 28  4 45  0.0 5.130115896463D-04 2.728484105319D-12 1.761000000000D+04
    7.245244140625D+03-9.110050201416D-01 9.313225746155D-10 0.000000000000D+00
    1.012827636719D+04 2.914431571960D+00 3.725290298462D-09 4.000000000000D+00
   -2.225965576172D+04 1.026438713074D+00 9.313225746155D-10 0.000000000000D+00
12 22  3 28  5 15  0.0 1.762248575687D-05 0.000000000000D+00 1.800000000000D+04
   -1.947955957031D+04-1.349877357483D+00 9.313225746155D-10 0.000000000000D+00
    1.242559863281D+04 6.263332366943D-01-0.000000000000D+00-1.000000000000D+00
    1.085158105469D+04-3.143915176392D+00-0.000000000000D+00 0.000000000000D+00
 2 22  3 28  5 15  0.0 5.138162523508D-04 0.000000000000D+00 1.800000000000D+04
    8.386296875000D+03-1.617385864258D+00 1.862645149231D-09 0.000000000000D+00
    1.759740087891D+04-1.574918746948D+00 4.656612873077D-09-4.000000000000D+00
   -1.636848535156D+04-2.520029067993D+00 0.000000000000D+00 0.000000000000D+00
 3 22  3 28  5 15  0.0 5.389377474785D-05 0.000000000000D+00 1.800000000000D+04
    1.919136523438D+04 6.978321075439D-02 0.000000000000D+00 0.000000000000D+00
    1.675639306641D+04-1.530351638794D-01 4.656612873077D-09 5.000000000000D+00
   -2.936728515625D+02-3.575261116028D+00-1.862645149231D-09 0.000000000000D+00
17 22  3 28  5 15  0.0 5.130171775818D-04 2.728484105319D-12 1.800000000000D+04
    6.074635742188D+03-3.943243026733D-01 1.862645149231D-09 0.000000000000D+00
    1.518941455078D+04 2.657981872559D+00 4.656612873077D-09 4.000000000000D+00
   -1.957551904297D+04 1.936499595642D+00 0.000000000000D+00 0.000000000000D+00
23 22  3 28  5 15  0.0-3.510154783726D-05-9.094947017729D-13 1.800000000000D+04
   -9.063856933594D+03 5.010328292847D-01 1.862645149231D-09 0.000000000000D+00
    2.164978271484D+04-1.294052124023D+00 9.313225746155D-10 3.000000000000D+00
    9.969092773438D+03 3.263924598694D+00-1.862645149231D-09 0.000000000000D+00
24 22  3 28  5 15  0.0 8.641369640827D-05 1.818989403546D-12 1.800000000000D+04
   -2.691942382812D+03 3.251934051514D-02 2.793967723846D-09 0.000000000000D+00
    2.483185400391D+04 7.334108352661D-01 3.725290298462D-09 2.000000000000D+00
   -5.177143554688D+03 3.489484786987D+00-9.313225746155D-10 0.000000000000D+00
13 22  3 28  5 15  0.0-2.005882561207D-05-0.000000000000D+00 1.941000000000D+04
   -4.429718261719D+03-2.771154403687D+00 0.000000000000D+00 0.000000000000D+00
    1.268823242188D+04 1.071388244629D+00-0.000000000000D+00-2.000000000000D+00
    2.166035253906D+04-1.192802429199D+00-1.862645149231D-09 0.000000000000D+00
12 22  3 28  5 45  0.0 1.762341707945D-05 0.000000000000D+00 1.980000000000D+04
   -2.116202441406D+04-5.183391571045D-01 9.313225746155D-10 0.000000000000D+00
    1.342039013672D+04 4.368696212769D-01-9.313225746155D-10-1.000000000000D+00
    4.846803710938D+03-3.484842300415D+00 0.000000000000D+00 0.000000000000D+00
 2 22  3 28  5 45  0.0 5.138162523508D-04 0.000000000000D+00 1.980000000000D+04
    4.871475585938D+03-2.269596099854D+00 2.793967723846D-09 0.000000000000D+00
    1.469020996094D+04-1.610179901123D+00 3.725290298462D-09-4.000000000000D+00
   -2.020879785156D+04-1.719118118286D+00 9.313225746155D-10 0.000000000000D+00
 3 22  3 28  5 45  0.0 5.389470607042D-05 0.000000000000D+00 1.980000000000D+04
    1.865643359375D+04-6.823253631592D-01 1.862645149231D-09 0.000000000000D+00
    1.601655664062D+04-6.319637298584D-01 4.656612873077D-09 5.000000000000D+00
   -6.634243164062D+03-3.423841476440D+00-9.313225746155D-10 0.000000000000D+00
13 22  3 28  5 45  0.0-2.006068825722D-05-0.000000000000D+00 1.980000000000D+04
   -8.962119140625D+03-2.230635643005D+00 0.000000000000D+00 0.000000000000D+00
    1.482710156250D+04 1.269385337830D+00-0.000000000000D+00-2.000000000000D+00
    1.870225000000D+04-2.072561264038D+00-1.862645149231D-09 0.000000000000D+00
17 22  3 28  5 45  0.0 5.130218341947D-04 2.728484105319D-12 1.980000000000D+04
    5.776431152344D+03 4.085350036621D-02 2.793967723846D-09 0.000000000000D+00
    1.952427929688D+04 2.115144729614D+00 3.725290298462D-09 4.000000000000D+00
   -1.537852441406D+04 2.696511268616D+00-0.000000000000D+00 0.000000000000D+00
23 22  3 28  5 45  0.0-3.510434180498D-05-9.094947017729D-13 1.980000000000D+04
   -8.267189941406D+03 3.446369171143D-01 9.313225746155D-10 0.000000000000D+00
    1.858045556641D+04-2.092172622681D+00 0.000000000000D+00 3.000000000000D+00
    1.538235937500D+04 2.711715698242D+00-1.862645149231D-09 0.000000000000D+00
24 22  3 28  5 45  0.0 8.641649037600D-05 1.818989403546D-12 1.980000000000D+04
   -2.448639648438D+03 1.976175308228D-01 2.793967723846D-09 0.000000000000D+00
    2.536506201172D+04-1.511173248291D-01 1.862645149231D-09 2.000000000000D+00
    1.222925292969D+03 3.575523376465D+00-9.313225746155D-10 0.000000000000D+00
12 22  3 28  6 15  0.0 1.762434840202D-05 0.000000000000D+00 2.160000000000D+04
   -2.137570751953D+04 2.633628845215D-01 9.313225746155D-10 0.000000000000D+00
    1.385362109375D+04 7.700920104980D-03-9.313225746155D-10-1.000000000000D+00
   -1.532084960938D+03-3.556855201721D+00 9.313225746155D-10 0.000000000000D+00
 2 22  3 28  6 15  0.0 5.138171836734D-04 0.000000000000D+00 2.160000000000D+04
    3.136079101562D+02-2.759476661682D+00 2.793967723846D-09 0.000000000000D+00
    1.195121875000D+04-1.396073341370D+00 1.862645149231D-09-4.000000000000D+00
   -2.247704638672D+04-7.847852706909D-01 1.862645149231D-09 0.000000000000D+00
 3 22  3 28  6 15  0.0 5.389470607042D-05 0.000000000000D+00 2.160000000000D+04
    1.670260156250D+04-1.487986564636D+00 2.793967723846D-09 0.000000000000D+00
    1.462829687500D+04-8.674230575562D-01 4.656612873077D-09 5.000000000000D+00
   -1.245929833984D+04-3.006129264832D+00-0.000000000000D+00 0.000000000000D+00
13 22  3 28  6 15  0.0-2.006161957979D-05-0.000000000000D+00 2.160000000000D+04
   -1.236601074219D+04-1.534179687500D+00 9.313225746155D-10 0.000000000000D+00
    1.711306494141D+04 1.227174758911D+00-9.313225746155D-10-2.000000000000D+00
    1.429583349609D+04-2.791575431824D+00-9.313225746155D-10 0.000000000000D+00
17 22  3 28  6 15  0.0 5.130274221301D-04 2.728484105319D-12 2.160000000000D+04
    6.116233886719D+03 3.013505935669D-01 3.725290298462D-09 0.000000000000D+00
    2.267151269531D+04 1.352740287781D+00 2.793967723846D-09 4.000000000000D+00
   -9.993547363281D+03 3.247951507568D+00-9.313225746155D-10 0.000000000000D+00
23 22  3 28  6 15  0.0-3.510713577271D-05-9.094947017729D-13 2.160000000000D+04
   -7.947441406250D+03-1.761627197266D-02 0.000000000000D+00 0.000000000000D+00
    1.423585205078D+04-2.694801330566D+00-9.313225746155D-10 3.000000000000D+00
    1.960502099609D+04 1.949642181396D+00-1.862645149231D-09 0.000000000000D+00
24 22  3 28  6 15  0.0 8.642021566629D-05 1.818989403546D-12 2.160000000000D+04
   -2.128904785156D+03 1.169500350952D-01 1.862645149231D-09 0.000000000000D+00
    2.428692626953D+04-1.037129402161D+00 9.313225746155D-10 2.000000000000D+00
    7.528503906250D+03 3.385219573975D+00-1.862645149231D-09 0.000000000000D+00
14 22  3 28  6 15  0.0 7.587019354105D-05 0.000000000000D+00 2.334000000000D+04
    4.963809082031D+03-2.569968223572D+00-0.000000000000D+00 0.000000000000D+00
    1.006444970703D+04 1.794334411621D+00 0.000000000000D+00-7.000000000000D+00
    2.291194873047D+04-2.326698303223D-01-2.793967723846D-09 0.000000000000D+00
12 22  3 28  6 45  0.0 1.762434840202D-05 0.000000000000D+00 2.340000000000D+04
   -2.030652685547D+04 8.916606903076D-01 9.313225746155D-10 0.000000000000D+00
    1.333522265625D+04-6.084251403809D-01-9.313225746155D-10-1.000000000000D+00
   -7.792584960938D+03-3.354098320007D+00 9.313225746155D-10 0.000000000000D+00
